[{"OBJECT_NAME":"STARLINK-30069","OBJECT_ID":"2023-079M","EPOCH":"2026-03-08T11:34:15.947328","MEAN_MOTION":15.26726881,"ECCENTRICITY":4.69e-5,"INCLINATION":42.9986,"RA_OF_ASC_NODE":110.4464,"ARG_OF_PERICENTER":272.6695,"MEAN_ANOMALY":87.4103,"EPHEMERIS_TYPE":0,"CLASSIFICATION_TYPE":"U","NORAD_CAT_ID":56834,"ELEMENT_SET_NO":999,"REV_AT_EPOCH":15274,"BSTAR":-8.0472e-5,"MEAN_MOTION_DOT":-2.416e-5,"MEAN_MOTION_DDOT":0},{"OBJECT_NAME":"STARLINK-35437","OBJECT_ID":"2025-268G","EPOCH":"2026-03-09T04:25:19.225920","MEAN_MOTION":15.27591418,"ECCENTRICITY":0.0002268,"INCLINATION":43.0025,"RA_OF_ASC_NODE":349.8196,"ARG_OF_PERICENTER":262.1517,"MEAN_ANOMALY":97.9078,"EPHEMERIS_TYPE":0,"CLASSIFICATION_TYPE":"U","NORAD_CAT_ID":66563,"ELEMENT_SET_NO":999,"REV_AT_EPOCH":1788,"BSTAR":0.001175914,"MEAN_MOTION_DOT":0.0003225,"MEAN_MOTION_DDOT":0}]
